[
    {
        "Altitude(m)": 611967.1474115207,
        "Argument of Periapsis(deg)": 0.0,
        "Eccentricity": 0.0,
        "Inclination(deg)": 60.0,
        "Latitude(deg)": 59.14006602916526,
        "Longitude(deg)": -113.90784225547907,
        "Mean Anomaly(deg)": 98.18179999999998,
        "RAAN(deg)": 240.0,
        "Satellite Name": "Test1 1062",
        "Satellite Number": 1062,
        "Semi-Major Axis(m)": 6980739.136638005,
        "Time(s)": 0
    },
    {
        "Altitude(m)": 611934.3468012073,
        "Argument of Periapsis(deg)": 0.00010418945913296404,
        "Eccentricity": 0.0,
        "Inclination(deg)": 60.0,
        "Latitude(deg)": 58.98642705343955,
        "Longitude(deg)": -112.78460025503293,
        "Mean Anomaly(deg)": 98.80190614546179,
        "RAAN(deg)": 239.99957995086024,
        "Satellite Name": "Test1 1062",
        "Satellite Number": 1062,
        "Semi-Major Axis(m)": 6980739.136638005,
        "Time(s)": 10
    }
]